TEVEL2-4                
1 63213U 25052D   26087.44837012  .00022525  00000+0  73710-3 0  9997
2 63213  97.3996 343.8393 0004284  59.9840 300.1826 15.31690724 57747
